SCD 1                   
1 22490U 93009B   26164.87128389  .00000363  00000+0  48347-4 0  9994
2 22490  24.9681 228.0525 0042177 102.7647  57.9732 14.46117773760637
TECHSAT 1B (GO-32)      
1 25397U 98043D   26164.90345441  .00000056  00000+0  44229-4 0  9994
2 25397  99.0066 157.5792 0000883 170.1525 189.9670 14.24427873450869
SCD 2                   
1 25504U 98060A   26164.15409937  .00000382  00000+0  55754-4 0  9998
2 25504  24.9947  97.0290 0016973  80.8885 302.2821 14.45524442459745
DLR-TUBSAT              
1 25757U 99029B   26164.91780973  .00000078  00000+0  31092-4 0  9991
2 25757  98.6695 160.3143 0014259   5.1628 354.9711 14.52426154432779
TERRA                   
1 25994U 99068A   26164.93325542  .00000358  00000+0  81929-4 0  9991
2 25994  97.9457 214.6084 0001328 201.6119 206.0690 14.61100771409139
MAROC-TUBSAT            
1 27004U 01056D   26164.94868678 -.00000024  00000+0  25786-4 0  9998
2 27004  99.8080 341.7472 0020225 149.3566 337.6289 13.70262379225740
AQUA                    
1 27424U 02022A   26164.97092767  .00000729  00000+0  15468-3 0  9995
2 27424  98.4276 134.1895 0001225  53.5688 347.7452 14.62153890282804
SHIYAN-1 (SY-1)         
1 28220U 04012A   26164.79100420  .00013350  00000+0  41212-3 0  9997
2 28220  97.8697 242.6385 0005899  44.4190 315.7523 15.33681149210577
AURA                    
1 28376U 04026A   26164.90488634  .00000731  00000+0  15770-3 0  9992
2 28376  98.3416 121.3310 0001245  73.3428 286.7909 14.61324790165739
IRS-P5 (CARTOSAT-1)     
1 28649U 05017A   26164.78997125  .00001246  00000+0  13124-3 0  9995
2 28649  97.5308 188.0085 0002676  84.1638 275.9886 14.91041304143318
SINAH 1                 
1 28893U 05043D   26164.91055236  .00000291  00000+0  64659-4 0  9997
2 28893  98.2855 299.2133 0013169 288.0785  71.8982 14.64155733100045
RESURS-DK 1             
1 29228U 06021A   26164.92849854  .00002592  00000+0  15165-3 0  9998
2 29228  69.9339 347.9881 0006803 294.2410  65.8045 15.13205683102086
ARIRANG-2 (KOMPSAT-2)   
1 29268U 06031A   26164.95799429  .00000435  00000+0  90128-4 0  9995
2 29268  97.8303 349.5614 0015951  83.8197  43.9360 14.64658715 61007
LAPAN-TUBSAT            
1 29709U 07001A   26164.95478311  .00000879  00000+0  10723-3 0  9991
2 29709  98.1338 164.1053 0011654 189.9647 170.1338 14.85948161 50670
HAIYANG-1B              
1 31113U 07010A   26164.92847666  .00000078  00000+0  45292-4 0  9994
2 31113  98.3494 146.9001 0012810 206.4182 153.6349 14.31026164   171
COSMO-SKYMED 1          
1 31598U 07023A   26164.92680889  .00002569  00000+0  22800-3 0  9993
2 31598  97.8841 356.7556 0001064  95.9631 264.1712 14.97085323 29305
TERRASAR-X              
1 31698U 07026A   26164.30549450  .00000550  00000+0  29393-4 0  9990
2 31698  97.4448 172.0669 0001630  86.5072 273.6349 15.19146801 52630
WORLDVIEW-1 (WV-1)      
1 32060U 07041A   26164.94401872  .00006368  00000+0  26396-3 0  9998
2 32060  97.3873 284.7342 0002566  30.8020 329.3368 15.24234579 42385
YAOGAN-3                
1 32289U 07055A   26164.97269145  .00002550  00000+0  26508-3 0  9998
2 32289  97.8158 194.8824 0002026  88.3773 271.7678 14.90771310  5394
COSMO-SKYMED 2          
1 32376U 07059A   26164.92053873  .00000370  00000+0  52979-4 0  9993
2 32376  97.8885 348.5659 0001385  86.3406 273.7966 14.82152640  1523
RADARSAT-2              
1 32382U 07061A   26164.95909292 -.00000265  00000+0 -85730-4 0  9997
2 32382  98.5776 171.9373 0001301  82.5281 277.6049 14.29980281965496
CARTOSAT-2A             
1 32783U 08021A   26164.93491082  .00000345  00000+0  53168-4 0  9997
2 32783  97.7642 213.7542 0013043 118.2918 241.9612 14.79233154978328
HUANJING 1A (HJ-1A)     
1 33320U 08041A   26164.92979043  .00001628  00000+0  20116-3 0  9995
2 33320  97.6675 150.8936 0019732 144.8883 215.3637 14.83981513957925
HUANJING 1B (HJ-1B)     
1 33321U 08041B   26164.96484501  .00000224  00000+0  33376-4 0  9994
2 33321  97.6512 154.1089 0035725 191.6421 168.3971 14.83310201957939
GEOEYE 1                
1 33331U 08042A   26164.94119831  .00000409  00000+0  85671-4 0  9995
2 33331  98.1236 238.9135 0005490  77.4314 282.7503 14.64722965949677
THEOS                   
1 33396U 08049A   26164.93926166 -.00000119  00000+0 -35818-4 0  9997
2 33396  98.5578 222.3282 0001250  81.8361 278.2958 14.20131694917508
COSMO-SKYMED 3          
1 33412U 08054A   26164.88951115  .00005087  00000+0  34399-3 0  9997
2 33412  97.8289  23.4064 0014394 279.2993  80.6605 15.06934525956442
YAOGAN-4                
1 33446U 08061A   26164.79394572  .00000945  00000+0  12215-3 0  9991
2 33446  97.9308  98.3293 0015752  82.4273 277.8730 14.83194294945162
GOSAT (IBUKI)           
1 33492U 09002A   26164.86561382  .00001065  00000+0  19636-3 0  9999
2 33492  98.0888 275.9881 0001448  81.2358 278.9011 14.67539561930971
DEIMOS-1                
1 35681U 09041A   26164.93067314  .00000439  00000+0  71907-4 0  9992
2 35681  97.7393 322.2998 0001423 133.7562 226.3766 14.75234025906409
