OBJECT_NAME,OBJECT_ID,EPOCH,MEAN_MOTION,ECCENTRICITY,INCLINATION,RA_OF_ASC_NODE,ARG_OF_PERICENTER,MEAN_ANOMALY,EPHEMERIS_TYPE,CLASSIFICATION_TYPE,NORAD_CAT_ID,ELEMENT_SET_NO,REV_AT_EPOCH,BSTAR,MEAN_MOTION_DOT,MEAN_MOTION_DDOT
SCD 1,1993-009B,2026-06-13T20:54:38.928096,14.46117773,.00421771,24.9681,228.0525,102.7647,57.9732,0,U,22490,999,76063,.48346694E-4,.363E-5,0
TECHSAT 1B (GO-32),1998-043D,2026-06-13T21:40:58.461024,14.24427873,.0000883,99.0066,157.5792,170.1525,189.9670,0,U,25397,999,45086,.44228741E-4,.56E-6,0
SCD 2,1998-060A,2026-06-13T03:41:54.185568,14.45524442,.00169739,24.9947,97.0290,80.8885,302.2821,0,U,25504,999,45974,.55754164E-4,.382E-5,0
DLR-TUBSAT,1999-029B,2026-06-13T22:01:38.760672,14.52426154,.0014259,98.6695,160.3143,5.1628,354.9711,0,U,25757,999,43277,.31092283E-4,.78E-6,0
TERRA,1999-068A,2026-06-13T22:23:53.268288,14.61100771,.0001328,97.9457,214.6084,201.6119,206.0690,0,U,25994,999,40913,.8192911E-4,.358E-5,0
MAROC-TUBSAT,2001-056D,2026-06-13T22:46:06.537792,13.70262379,.00202255,99.8080,341.7472,149.3566,337.6289,0,U,27004,999,22574,.25785699E-4,-.24E-6,0
AQUA,2002-022A,2026-06-13T23:18:08.150688,14.62153890,.00012255,98.4276,134.1895,53.5688,347.7452,0,U,27424,999,28280,.15468027E-3,.729E-5,0
SHIYAN-1 (SY-1),2004-012A,2026-06-13T18:59:02.762880,15.33681149,.00058991,97.8697,242.6385,44.4190,315.7523,0,U,28220,999,21057,.41212328E-3,.1335E-3,0
AURA,2004-026A,2026-06-13T21:43:02.179776,14.61324790,.00012452,98.3416,121.3310,73.3428,286.7909,0,U,28376,999,16573,.15769877E-3,.731E-5,0
IRS-P5 (CARTOSAT-1),2005-017A,2026-06-13T18:57:33.516000,14.91041304,.00026769,97.5308,188.0085,84.1638,275.9886,0,U,28649,999,14331,.13123953E-3,.1246E-4,0
SINAH 1,2005-043D,2026-06-13T21:51:11.723904,14.64155733,.00131692,98.2855,299.2133,288.0785,71.8982,0,U,28893,999,10004,.64659254E-4,.291E-5,0
RESURS-DK 1,2006-021A,2026-06-13T22:17:02.273856,15.13205683,.00068032,69.9339,347.9881,294.2410,65.8045,0,U,29228,999,10208,.15165032E-3,.2592E-4,0
ARIRANG-2 (KOMPSAT-2),2006-031A,2026-06-13T22:59:30.706656,14.64658715,.0015951,97.8303,349.5614,83.8197,43.9360,0,U,29268,999,6100,.90128385E-4,.435E-5,0
LAPAN-TUBSAT,2007-001A,2026-06-13T22:54:53.260704,14.85948161,.00116542,98.1338,164.1053,189.9647,170.1338,0,U,29709,999,5067,.10723374E-3,.879E-5,0
HAIYANG-1B,2007-010A,2026-06-13T22:17:00.383424,14.31026164,.00128101,98.3494,146.9001,206.4182,153.6349,0,U,31113,999,17,.45292422E-4,.78E-6,0
COSMO-SKYMED 1,2007-023A,2026-06-13T22:14:36.288096,14.97085323,.00010643,97.8841,356.7556,95.9631,264.1712,0,U,31598,999,2930,.22800452E-3,.2569E-4,0
TERRASAR-X,2007-026A,2026-06-13T07:19:54.724800,15.19146801,.00016306,97.4448,172.0669,86.5072,273.6349,0,U,31698,999,5263,.29393025E-4,.55E-5,0
WORLDVIEW-1 (WV-1),2007-041A,2026-06-13T22:39:23.217408,15.24234579,.00025669,97.3873,284.7342,30.8020,329.3368,0,U,32060,999,4238,.26395684E-3,.6368E-4,0
YAOGAN-3,2007-055A,2026-06-13T23:20:40.541280,14.90771310,.00020269,97.8158,194.8824,88.3773,271.7678,0,U,32289,999,539,.26508096E-3,.255E-4,0
COSMO-SKYMED 2,2007-059A,2026-06-13T22:05:34.546272,14.82152640,.00013855,97.8885,348.5659,86.3406,273.7966,0,U,32376,999,152,.5297874E-4,.37E-5,0
RADARSAT-2,2007-061A,2026-06-13T23:01:05.628288,14.29980281,.00013011,98.5776,171.9373,82.5281,277.6049,0,U,32382,999,96549,-.85730033E-4,-.265E-5,0
CARTOSAT-2A,2008-021A,2026-06-13T22:26:16.294848,14.79233154,.00130431,97.7642,213.7542,118.2918,241.9612,0,U,32783,999,97832,.53168039E-4,.345E-5,0
HUANJING 1A (HJ-1A),2008-041A,2026-06-13T22:18:53.893152,14.83981513,.00197329,97.6675,150.8936,144.8883,215.3637,0,U,33320,999,95792,.20116377E-3,.1628E-4,0
HUANJING 1B (HJ-1B),2008-041B,2026-06-13T23:09:22.608864,14.83310201,.0035725,97.6512,154.1089,191.6421,168.3971,0,U,33321,999,95793,.33376461E-4,.224E-5,0
GEOEYE 1,2008-042A,2026-06-13T22:35:19.533984,14.64722965,.00054908,98.1236,238.9135,77.4314,282.7503,0,U,33331,999,94967,.8567066E-4,.409E-5,0
THEOS,2008-049A,2026-06-13T22:32:32.207424,14.20131694,.00012508,98.5578,222.3282,81.8361,278.2958,0,U,33396,999,91750,-.35818138E-4,-.119E-5,0
COSMO-SKYMED 3,2008-054A,2026-06-13T21:20:53.763360,15.06934525,.00143945,97.8289,23.4064,279.2993,80.6605,0,U,33412,999,95644,.34398717E-3,.5087E-4,0
YAOGAN-4,2008-061A,2026-06-13T19:03:16.910208,14.83194294,.00157528,97.9308,98.3293,82.4273,277.8730,0,U,33446,999,94516,.12214807E-3,.945E-5,0
GOSAT (IBUKI),2009-002A,2026-06-13T20:46:29.034048,14.67539561,.00014487,98.0888,275.9881,81.2358,278.9011,0,U,33492,999,93097,.19635698E-3,.1065E-4,0
DEIMOS-1,2009-041A,2026-06-13T22:20:10.159296,14.75234025,.00014233,97.7393,322.2998,133.7562,226.3766,0,U,35681,999,90640,.71907483E-4,.439E-5,0
